ONEWEB-0531             
1 54146U 22138AK  25276.56848953  .00000055  00000+0  10388-3 0  9998
2 54146  87.9237 325.6085 0002829  94.7038 265.4419 13.20769744145430
ONEWEB-0535             
1 54147U 22138AL  25277.65250731 -.00000067  00000+0 -20090-3 0  9997
2 54147  87.9287 355.7692 0002189  93.0576 267.0808 13.19726803143134
ONEWEB-0536             
1 54148U 22138AM  25277.84372948  .00000072  00000+0  14517-3 0  9995
2 54148  87.9236 325.4018 0002942  96.9228 263.2240 13.20772978145594
ONEWEB-0527             
1 54642U 22166A   25277.77173926  .00000150  00000+0  33058-3 0  9990
2 54642  87.9176 294.9687 0001923  94.3764 265.7590 13.21824033137792
ONEWEB-0528             
1 54643U 22166B   25277.47525948  .00000022  00000+0  22405-4 0  9996
2 54643  87.9179 295.0307 0001923  94.5471 265.5882 13.21822969137769
ONEWEB-0539             
1 54644U 22166C   25277.81432081 -.00000057  00000+0 -17051-3 0  9990
2 54644  87.9172 294.9297 0001765  87.2695 272.8641 13.21826367137805
ONEWEB-0540             
1 54645U 22166D   25277.74507126  .00000001  00000+0 -30008-4 0  9992
2 54645  87.9175 294.9815 0001750  87.1113 273.0221 13.21824840137781
ONEWEB-0542             
1 54646U 22166E   25277.74807944 -.00000011  00000+0 -57950-4 0  9991
2 54646  87.9174 294.9406 0001831  81.8070 278.3272 13.21825017137792
